[{"OBJECT_NAME":"STARLINK-4214","OBJECT_ID":"2022-062AZ","EPOCH":"2026-03-09T06:18:00.754272","MEAN_MOTION":15.0884913,"ECCENTRICITY":0.00011399,"INCLINATION":53.2188,"RA_OF_ASC_NODE":16.0502,"ARG_OF_PERICENTER":95.1716,"MEAN_ANOMALY":264.9407,"EPHEMERIS_TYPE":0,"CLASSIFICATION_TYPE":"U","NORAD_CAT_ID":52877,"ELEMENT_SET_NO":999,"REV_AT_EPOCH":20600,"BSTAR":-4.9116859e-5,"MEAN_MOTION_DOT":-1.07e-5,"MEAN_MOTION_DDOT":0},{"OBJECT_NAME":"KSLV-II R\/B","OBJECT_ID":"2025-274P","EPOCH":"2026-03-09T17:44:44.185056","MEAN_MOTION":14.98166503,"ECCENTRICITY":0.00605567,"INCLINATION":97.7452,"RA_OF_ASC_NODE":0.3618,"ARG_OF_PERICENTER":19.961,"MEAN_ANOMALY":340.3962,"EPHEMERIS_TYPE":0,"CLASSIFICATION_TYPE":"U","NORAD_CAT_ID":66663,"ELEMENT_SET_NO":999,"REV_AT_EPOCH":1543,"BSTAR":0.00059831331,"MEAN_MOTION_DOT":7.309e-5,"MEAN_MOTION_DDOT":0}]
